SL-16 R/B               
1 25407U 98045B   26078.67369271  .00000088  00000+0  68708-4 0  9996
2 25407  71.0119 160.5796 0007425 352.2110   7.8897 14.16195132428517
ISS (ZARYA)             
1 25544U 98067A   26078.83953712  .00010217  00000+0  19745-3 0  9990
2 25544  51.6344  22.1830 0006242 209.8635 150.1998 15.48385427557904
CZ-4B R/B               
1 25732U 99025C   26078.76367245  .00000033  00000+0  36805-4 0  9998
2 25732  98.6605 122.8057 0036271 317.1982 154.0022 14.18267216389596
OKEAN-O                 
1 25860U 99039A   26078.72332995  .00000541  00000+0  77732-4 0  9993
2 25860  97.9420 138.5119 0000993  76.2615 283.8707 14.80350875435873
SL-16 R/B               
1 25861U 99039B   26078.76128522  .00000441  00000+0  62761-4 0  9992
2 25861  97.9944 137.8419 0013906 220.7349 139.2824 14.81744557438353
DELTA 2 R/B             
1 25876U 99041E   26078.70657712  .00000393  00000+0  10293-3 0  9991
2 25876  51.7607 261.2673 0502593  17.9781 343.8236 14.11863310364448
HELIOS 1B               
1 25977U 99064A   26078.73527870  .00001390  00000+0  15891-3 0  9999
2 25977  98.1685 341.2734 0002215  60.6796 299.4640 14.87736134686757
TERRA                   
1 25994U 99068A   26078.85611819  .00000355  00000+0  81470-4 0  9999
2 25994  97.9572 131.9015 0003265 129.7135 317.2419 14.61024952396564
SL-16 R/B               
1 26070U 00006B   26078.26780130 -.00000125  00000+0 -39105-4 0  9992
2 26070  71.0004  77.6957 0016253 175.2757 184.8522 14.15823696349912
TITAN 4B R/B            
1 26474U 00047B   26078.83366697  .00003621  00000+0  22880-3 0  9999
2 26474  67.9913  11.9841 0039121  23.3772 336.9144 15.09657426394443
ENVISAT                 
1 27386U 02009A   26078.82482876  .00000091  00000+0  43205-4 0  9992
2 27386  98.3746  32.1818 0001297  82.2096 296.1609 14.39040384260630
IDEFIX & ARIANE 42P R/B 
1 27422U 02021B   26078.84399248  .00000235  00000+0  10587-3 0  9995
2 27422  98.5881  17.3295 0012161 152.5787 207.6040 14.31032832245479
